[{"OBJECT_NAME":"GAOFEN-12 01","OBJECT_ID":"2019-082A","EPOCH":"2026-03-09T23:49:51.973824","MEAN_MOTION":14.80365933,"ECCENTRICITY":0.00017748,"INCLINATION":97.8143,"RA_OF_ASC_NODE":77.9831,"ARG_OF_PERICENTER":56.9861,"MEAN_ANOMALY":303.1522,"EPHEMERIS_TYPE":0,"CLASSIFICATION_TYPE":"U","NORAD_CAT_ID":44819,"ELEMENT_SET_NO":999,"REV_AT_EPOCH":33941,"BSTAR":9.6158816e-5,"MEAN_MOTION_DOT":6.83e-6,"MEAN_MOTION_DDOT":0},{"OBJECT_NAME":"FENGYUN 1C DEB","OBJECT_ID":"1999-025AUZ","EPOCH":"2026-03-09T10:24:55.413216","MEAN_MOTION":14.79067297,"ECCENTRICITY":0.00020782,"INCLINATION":99.3006,"RA_OF_ASC_NODE":242.3565,"ARG_OF_PERICENTER":244.2654,"MEAN_ANOMALY":145.7699,"EPHEMERIS_TYPE":0,"CLASSIFICATION_TYPE":"U","NORAD_CAT_ID":30815,"ELEMENT_SET_NO":999,"REV_AT_EPOCH":99059,"BSTAR":0.0039048317,"MEAN_MOTION_DOT":0.00028949,"MEAN_MOTION_DDOT":0}]
